366P/Spacewatch,e,8.8587,70.7595,153.1334,3.495839,0.1507915,0.34821803,167.3009,08/03.0/2021,2000,g 15.0,4.0
# From MPC112395
367P/Catalina,e,8.4621,58.7213,172.9020,3.505883,0.1501440,0.28017335,171.0594,08/03.0/2021,2000,g 17.5,2.0
# From MPC114610
368P/NEAT,e,15.4812,257.9351,118.7987,5.527170,0.0758490,0.62647716,79.8892,08/03.0/2021,2000,g 14.0,4.0
# From MPC114610
369P/Hill,e,10.3152,47.2939,13.1738,4.383993,0.1073740,0.55452282,109.8204,08/03.0/2021,2000,g 15.0,4.0
# From MPEC 2021-F20
370P/NEAT,e,19.4068,55.1113,356.6806,6.434630,0.0603836,0.61468086,69.4622,08/03.0/2021,2000,g 13.0,4.0
# From MPC114610
371P/LINEAR-Skiff,e,17.3779,67.2946,308.4683,4.180981,0.1152887,0.47672932,119.0853,08/03.0/2021,2000,g 16.0,4.0
# From MPEC 2020-K19
372P/McNaught,e,9.5101,325.8157,27.3358,4.504821,0.1030832,0.15273680,104.7055,08/03.0/2021,2000,g 13.5,4.0
# From MPEC 2021-F20
373P/Rinner,e,13.7623,231.9483,221.0876,3.803337,0.1328792,0.39222566,112.5841,08/03.0/2021,2000,g 14.5,4.0
# From MPC114610
374P/Larson,e,10.7644,7.9122,51.4809,4.973338,0.0888653,0.46260256,83.1094,08/03.0/2021,2000,g 14.0,4.0
# From MPEC 2021-F20
375P/Hill,e,17.3613,359.9464,119.4489,5.555662,0.0752663,0.65854721,71.9603,08/03.0/2021,2000,g 16.0,4.0
# From MPEC 2020-W26
376P/LONEOS,e,1.1897,314.7490,284.7039,5.827720,0.0700577,0.51727552,47.3879,08/03.0/2021,2000,g 12.5,4.0
# From MPEC 2021-N06
377P/Scotti,e,9.0233,226.0606,355.0442,6.710144,0.0567030,0.25226778,21.9436,08/03.0/2021,2000,g  9.5,4.0
# From MPEC 2021-O56
378P/McNaught,e,19.0541,94.3878,193.8810,6.377024,0.0612036,0.47023759,17.6007,08/03.0/2021,2000,g 12.0,4.0
# From MPC115889
379P/Spacewatch,e,12.4253,183.8244,30.9410,3.520224,0.1492274,0.34025685,109.3612,08/03.0/2021,2000,g 15.0,4.0
# From MPEC 2020-KB7
380P/PANSTARRS,e,8.2824,132.9778,88.2057,4.504150,0.1031062,0.33340097,81.7845,08/03.0/2021,2000,g 12.5,4.0
# From MPEC 2021-J28
381P/LINEAR-Spacewatch,e,28.3764,173.7678,173.1794,7.125023,0.0518233,0.68188104,35.0284,08/03.0/2021,2000,g 17.5,2.0
# From MPEC 2021-O56
382P/Larson,e,7.9374,174.7398,173.1399,6.422823,0.0605501,0.31364433,346.4173,08/03.0/2021,2000,g  8.0,4.0
# From MPC118844
383P/Christensen,e,12.3215,207.8635,133.6907,3.545441,0.1476382,0.59961946,95.4712,08/03.0/2021,2000,g 18.0,4.0
# From MPEC 2020-W26
384P/Kowalski,e,7.2841,354.2290,37.6185,2.900977,0.1994746,0.61564603,131.9393,08/03.0/2021,2000,g 19.5,4.0
# From MPEC 2021-F20
385P/Hill,e,16.8304,357.0613,44.3229,4.288359,0.1109858,0.40153774,76.3702,08/03.0/2021,2000,g 13.0,4.0
# From MPEC 2021-L04
386P/PANSTARRS,e,15.2296,134.9480,353.2147,4.056410,0.1206400,0.41626646,42.0741,08/03.0/2021,2000,g 14.5,4.0
# From MPEC 2021-J28
387P/Boattini,e,8.9193,259.3128,162.7705,4.798282,0.0937725,0.73615323,65.3358,08/03.0/2021,2000,g 15.0,4.0
# From MPEC 2021-F20
388P/Gibbs,e,23.8701,37.0422,42.3541,5.243731,0.0820811,0.61804359,60.8578,08/03.0/2021,2000,g 13.0,4.0
# From MPEC 2021-J28
389P/Siding Spring,e,160.0702,218.8534,249.3165,5.627657,0.0738266,0.70431040,43.0252,08/03.0/2021,2000,g 16.0,4.0
# From MPEC 2021-O56
390P/Gibbs,e,18.5619,152.2748,232.3524,5.804020,0.0704873,0.70716590,35.1511,08/03.0/2021,2000,g 12.0,4.0
# From MPEC 2021-F20
391P/Kowalski,e,21.2758,124.7313,187.0243,4.679390,0.0973689,0.12063041,119.8262,08/03.0/2021,2000,g  8.0,4.0
# From MPEC 2021-J28
392P/LINEAR,e,4.9306,24.8811,71.9543,6.145074,0.0647014,0.68278914,31.6533,08/03.0/2021,2000,g 14.5,4.0
# From MPEC 2021-BE3
393P/Spacewatch-Hill,e,16.7905,36.4144,328.2838,4.787121,0.0941006,0.12059526,60.8795,08/03.0/2021,2000,g 11.0,4.0
# From MPEC 2020-KB7
394P/PANSTARRS,e,8.5294,98.1251,54.5214,4.331999,0.1093129,0.36779867,66.8696,08/03.0/2021,2000,g 16.0,2.4
# From MPEC 2021-O56
395P/Catalina-NEAT,e,3.2771,223.7395,89.7973,6.545405,0.0588572,0.37897661,351.1914,08/03.0/2021,2000,g 10.0,4.0
# From MPEC 2020-KB7
396P/,e,5.4363,136.6641,8.5818,6.816825,0.0553772,0.41587539,39.0715,08/03.0/2021,2000,g 12.0,4.0
# From MPEC 2021-O56
397P/Lemmon,e,10.9285,8.2016,14.4414,3.827717,0.1316117,0.40510168,53.9074,08/03.0/2021,2000,g 12.0,4.0
# From MPEC 2021-L04
398P/Boattini,e,11.0154,127.4619,320.2296,3.128123,0.1781469,0.58263836,39.0601,08/03.0/2021,2000,g 15.5,4.0
# From MPEC 2021-F20
399P/PANSTARRS,e,13.3188,207.1454,214.2937,3.789518,0.1336066,0.44688796,9.6770,08/03.0/2021,2000,g 15.6,4.0
# From MPEC 2020-FB5
400P/PANSTARRS,e,10.9291,176.3947,238.7941,3.559970,0.1467353,0.40916595,25.5153,08/03.0/2021,2000,g 15.5,2.8
# From MPEC 2021-BE3
401P/McNaught,e,12.8035,359.8844,309.3378,5.773049,0.0710553,0.58010257,42.9432,08/03.0/2021,2000,g 12.5,4.0
# From MPEC 2021-J28
402P/LINEAR,e,30.8527,123.0894,326.7400,7.011441,0.0530876,0.43836725,352.9076,08/03.0/2021,2000,g  8.0,4.0
# From MPEC 2021-J28
403P/Catalina,e,12.3211,163.8125,277.6629,5.427301,0.0779522,0.50343266,24.9956,08/03.0/2021,2000,g 12.0,4.0
# From MPEC 2021-N06
404P/Bressi,e,9.7298,261.6607,162.8449,4.820235,0.0931326,0.13696889,287.1020,08/03.0/2021,2000,g 10.0,4.0
# From MPEC 2021-L04
405P/Lemmon,e,9.3654,3.3135,112.2381,3.608762,0.1437695,0.68913947,31.8727,08/03.0/2021,2000,g 17.5,4.0
# From MPEC 2021-F20
406P/Gibbs,e,1.2135,11.4710,352.3822,3.574393,0.1458481,0.54201184,46.8550,08/03.0/2021,2000,g 17.0,4.0
# From MPEC 2021-F20
407P/PANSTARRS-Fuls,e,4.8908,80.8060,92.6446,3.460383,0.1531150,0.38465171,84.0094,08/03.0/2021,2000,g 14.0,4.0
# From MPEC 2021-O56
408P/Novichonok-Gerke,e,19.3324,189.4468,226.0715,4.760273,0.0948978,0.27106320,319.6015,08/03.0/2021,2000,g 11.0,4.0
# From MPEC 2021-O56
409P/LONEOS-Hill,e,17.1188,143.6714,15.1311,6.047438,0.0662746,0.70995418,12.3829,08/03.0/2021,2000,g 14.0,4.0
# From MPEC 2021-F20
410P/NEAT-LINEAR,e,9.3938,139.9804,313.0935,6.632252,0.0577049,0.51041823,2.3338,08/03.0/2021,2000,g 12.5,4.0
# From MPEC 2021-J28
411P/Christensen,e,12.3776,77.6705,46.6685,5.818030,0.0702328,0.58084019,13.3856,08/03.0/2021,2000,g 13.5,4.0
# From MPEC 2021-F20
412P/WISE,e,8.9312,0.8491,155.9166,3.109556,0.1797449,0.47979553,43.2536,08/03.0/2021,2000,g 17.0,4.0
# From MPEC 2021-O56
413P/Larson,e,15.9783,39.0253,186.0410,3.710336,0.1379063,0.42326566,1.9018,08/03.0/2021,2000,g 14.0,4.0
# From MPEC 2021-BE3
414P/STEREO,e,23.3838,257.7893,210.7309,2.794625,0.2109690,0.81164260,40.0042,08/03.0/2021,2000,g 19.0,4.0
# From MPEC 2021-N06
415P/Tenagra,e,31.7915,160.2944,346.2611,4.115666,0.1180440,0.19478658,19.9292,08/03.0/2021,2000,g 12.0,4.0
# From MPEC 2021-L04
416P/Scotti,e,3.3613,355.8122,134.5129,4.013335,0.1225874,0.45435304,20.6610,08/03.0/2021,2000,g 15.5,4.0
# From MPEC 2021-O56
417P/NEOWISE,e,8.1308,111.3509,129.4657,3.348613,0.1608446,0.55442948,16.5369,08/03.0/2021,2000,g 16.5,4.0
# From MPEC 2021-L04
418P/LINEAR,e,5.7974,277.6591,307.0968,5.081101,0.0860533,0.66485633,353.4977,08/03.0/2021,2000,g 13.0,4.0
# From MPEC 2021-N06
419P/PANSTARRS,e,2.8028,40.3898,187.4950,3.521594,0.1491403,0.27780692,347.2582,08/03.0/2021,2000,g 12.5,4.0
# From MPEC 2021-O56
420P/Hill,e,14.5033,173.9593,157.1348,5.521335,0.0759693,0.49498086,337.7587,08/03.0/2021,2000,g 11.5,4.0
# From MPEC 2021-L04
421P/McNaught,e,10.0804,55.3486,259.8203,5.075785,0.0861885,0.67560830,16.3047,08/03.0/2021,2000,g 14.0,4.0
# From MPC107687
1I/`Oumuamua,h,09/09.4886/2017,122.6778,24.5997,241.6845,1.199252,0.255240,2000,23.0,2.0
# From MPEC 2020-K19
2I/Borisov,h,12/08.5549/2019,44.0527,308.1480,209.1251,3.356636,2.006548,2000,11.0,4.0
